[{"OBJECT_NAME":"STARLINK-32955","OBJECT_ID":"2025-039P","EPOCH":"2025-10-15T21:12:11.808000","MEAN_MOTION":15.27616441,"ECCENTRICITY":0.0001623,"INCLINATION":43.002,"RA_OF_ASC_NODE":110.3078,"ARG_OF_PERICENTER":278.5606,"MEAN_ANOMALY":81.5062,"EPHEMERIS_TYPE":0,"CLASSIFICATION_TYPE":"U","NORAD_CAT_ID":63117,"ELEMENT_SET_NO":999,"REV_AT_EPOCH":3592,"BSTAR":0.0013119,"MEAN_MOTION_DOT":0.00036056,"MEAN_MOTION_DDOT":0},{"OBJECT_NAME":"STARLINK-32945","OBJECT_ID":"2025-039Q","EPOCH":"2025-10-15T21:23:19.090752","MEAN_MOTION":15.27542264,"ECCENTRICITY":0.0001049,"INCLINATION":43.0037,"RA_OF_ASC_NODE":110.3631,"ARG_OF_PERICENTER":331.4587,"MEAN_ANOMALY":28.6207,"EPHEMERIS_TYPE":0,"CLASSIFICATION_TYPE":"U","NORAD_CAT_ID":63118,"ELEMENT_SET_NO":999,"REV_AT_EPOCH":3592,"BSTAR":0.0016964,"MEAN_MOTION_DOT":0.00046661,"MEAN_MOTION_DDOT":0},{"OBJECT_NAME":"STARLINK-32941","OBJECT_ID":"2025-039R","EPOCH":"2025-10-16T03:45:30.640896","MEAN_MOTION":15.27600908,"ECCENTRICITY":0.0001366,"INCLINATION":42.9999,"RA_OF_ASC_NODE":97.6512,"ARG_OF_PERICENTER":266.7071,"MEAN_ANOMALY":93.3624,"EPHEMERIS_TYPE":0,"CLASSIFICATION_TYPE":"U","NORAD_CAT_ID":63119,"ELEMENT_SET_NO":999,"REV_AT_EPOCH":3609,"BSTAR":0.0010163,"MEAN_MOTION_DOT":0.00027828,"MEAN_MOTION_DDOT":0},{"OBJECT_NAME":"STARLINK-32942","OBJECT_ID":"2025-039S","EPOCH":"2025-10-15T21:32:33.370080","MEAN_MOTION":15.2757962,"ECCENTRICITY":0.0001552,"INCLINATION":43.0032,"RA_OF_ASC_NODE":110.4078,"ARG_OF_PERICENTER":279.0932,"MEAN_ANOMALY":80.9744,"EPHEMERIS_TYPE":0,"CLASSIFICATION_TYPE":"U","NORAD_CAT_ID":63120,"ELEMENT_SET_NO":999,"REV_AT_EPOCH":3592,"BSTAR":0.0014237,"MEAN_MOTION_DOT":0.00039122,"MEAN_MOTION_DDOT":0},{"OBJECT_NAME":"STARLINK-32947","OBJECT_ID":"2025-039T","EPOCH":"2025-10-15T20:46:18.374880","MEAN_MOTION":15.27618978,"ECCENTRICITY":0.00012791,"INCLINATION":43.0002,"RA_OF_ASC_NODE":110.1675,"ARG_OF_PERICENTER":272.6521,"MEAN_ANOMALY":87.4185,"EPHEMERIS_TYPE":0,"CLASSIFICATION_TYPE":"U","NORAD_CAT_ID":63121,"ELEMENT_SET_NO":999,"REV_AT_EPOCH":3592,"BSTAR":0.001750398,"MEAN_MOTION_DOT":0.00048278,"MEAN_MOTION_DDOT":0},{"OBJECT_NAME":"STARLINK-32961","OBJECT_ID":"2025-039U","EPOCH":"2025-10-15T21:49:11.796384","MEAN_MOTION":15.27654511,"ECCENTRICITY":0.0003945,"INCLINATION":43.0014,"RA_OF_ASC_NODE":110.4953,"ARG_OF_PERICENTER":259.7354,"MEAN_ANOMALY":100.3053,"EPHEMERIS_TYPE":0,"CLASSIFICATION_TYPE":"U","NORAD_CAT_ID":63122,"ELEMENT_SET_NO":999,"REV_AT_EPOCH":3592,"BSTAR":0.0029315,"MEAN_MOTION_DOT":0.00081499,"MEAN_MOTION_DDOT":0},{"OBJECT_NAME":"STARLINK-32948","OBJECT_ID":"2025-039V","EPOCH":"2025-10-15T21:38:06.682272","MEAN_MOTION":15.27591379,"ECCENTRICITY":0.0001797,"INCLINATION":43.0027,"RA_OF_ASC_NODE":110.4377,"ARG_OF_PERICENTER":271.4864,"MEAN_ANOMALY":88.5781,"EPHEMERIS_TYPE":0,"CLASSIFICATION_TYPE":"U","NORAD_CAT_ID":63123,"ELEMENT_SET_NO":999,"REV_AT_EPOCH":3592,"BSTAR":0.0008751,"MEAN_MOTION_DOT":0.00023905,"MEAN_MOTION_DDOT":0},{"OBJECT_NAME":"STARLINK-32957","OBJECT_ID":"2025-039W","EPOCH":"2025-10-15T21:58:27.729408","MEAN_MOTION":15.27603737,"ECCENTRICITY":0.0001635,"INCLINATION":43.0009,"RA_OF_ASC_NODE":110.545,"ARG_OF_PERICENTER":271.9275,"MEAN_ANOMALY":88.139,"EPHEMERIS_TYPE":0,"CLASSIFICATION_TYPE":"U","NORAD_CAT_ID":63124,"ELEMENT_SET_NO":999,"REV_AT_EPOCH":3592,"BSTAR":0.0006222,"MEAN_MOTION_DOT":0.00016911,"MEAN_MOTION_DDOT":0},{"OBJECT_NAME":"STARLINK-11609 [DTC]","OBJECT_ID":"2025-043A","EPOCH":"2025-10-15T14:38:48.153984","MEAN_MOTION":15.70937801,"ECCENTRICITY":0.0001588,"INCLINATION":42.9997,"RA_OF_ASC_NODE":45.3227,"ARG_OF_PERICENTER":273.015,"MEAN_ANOMALY":87.0536,"EPHEMERIS_TYPE":0,"CLASSIFICATION_TYPE":"U","NORAD_CAT_ID":63132,"ELEMENT_SET_NO":999,"REV_AT_EPOCH":3664,"BSTAR":0.0015555,"MEAN_MOTION_DOT":0.00204987,"MEAN_MOTION_DDOT":0},{"OBJECT_NAME":"STARLINK-11604 [DTC]","OBJECT_ID":"2025-043B","EPOCH":"2025-10-16T00:18:45.313344","MEAN_MOTION":15.70909867,"ECCENTRICITY":5.31e-5,"INCLINATION":42.9994,"RA_OF_ASC_NODE":43.1925,"ARG_OF_PERICENTER":7.0007,"MEAN_ANOMALY":353.0868,"EPHEMERIS_TYPE":0,"CLASSIFICATION_TYPE":"U","NORAD_CAT_ID":63133,"ELEMENT_SET_NO":999,"REV_AT_EPOCH":3659,"BSTAR":0.0022598,"MEAN_MOTION_DOT":0.0030117,"MEAN_MOTION_DDOT":0},{"OBJECT_NAME":"STARLINK-11605 [DTC]","OBJECT_ID":"2025-043C","EPOCH":"2025-10-15T17:49:34.208256","MEAN_MOTION":15.70889274,"ECCENTRICITY":0.00014766,"INCLINATION":43.0018,"RA_OF_ASC_NODE":44.6001,"ARG_OF_PERICENTER":272.9695,"MEAN_ANOMALY":87.1003,"EPHEMERIS_TYPE":0,"CLASSIFICATION_TYPE":"U","NORAD_CAT_ID":63134,"ELEMENT_SET_NO":999,"REV_AT_EPOCH":3655,"BSTAR":0.0017862316,"MEAN_MOTION_DOT":0.00235859,"MEAN_MOTION_DDOT":0},{"OBJECT_NAME":"STARLINK-11610 [DTC]","OBJECT_ID":"2025-043D","EPOCH":"2025-10-16T04:00:03.000096","MEAN_MOTION":15.70788882,"ECCENTRICITY":0.0001797,"INCLINATION":43.0005,"RA_OF_ASC_NODE":42.117,"ARG_OF_PERICENTER":262.1999,"MEAN_ANOMALY":308.1478,"EPHEMERIS_TYPE":0,"CLASSIFICATION_TYPE":"U","NORAD_CAT_ID":63135,"ELEMENT_SET_NO":999,"REV_AT_EPOCH":603,"BSTAR":0.00058723,"MEAN_MOTION_DOT":0.00075427,"MEAN_MOTION_DDOT":0},{"OBJECT_NAME":"STARLINK-11613 [DTC]","OBJECT_ID":"2025-043E","EPOCH":"2025-10-15T16:33:18.027072","MEAN_MOTION":15.70893137,"ECCENTRICITY":0.00016165,"INCLINATION":42.9982,"RA_OF_ASC_NODE":45.0658,"ARG_OF_PERICENTER":265.5355,"MEAN_ANOMALY":94.5328,"EPHEMERIS_TYPE":0,"CLASSIFICATION_TYPE":"U","NORAD_CAT_ID":63136,"ELEMENT_SET_NO":999,"REV_AT_EPOCH":3666,"BSTAR":0.0011364001,"MEAN_MOTION_DOT":0.00148329,"MEAN_MOTION_DDOT":0},{"OBJECT_NAME":"STARLINK-11616 [DTC]","OBJECT_ID":"2025-043F","EPOCH":"2025-10-14T18:03:58.979808","MEAN_MOTION":15.7082564,"ECCENTRICITY":0.00014431,"INCLINATION":43.0001,"RA_OF_ASC_NODE":50.0545,"ARG_OF_PERICENTER":288.5133,"MEAN_ANOMALY":71.5578,"EPHEMERIS_TYPE":0,"CLASSIFICATION_TYPE":"U","NORAD_CAT_ID":63137,"ELEMENT_SET_NO":999,"REV_AT_EPOCH":3652,"BSTAR":0.0026685644,"MEAN_MOTION_DOT":0.00356872,"MEAN_MOTION_DDOT":0},{"OBJECT_NAME":"STARLINK-11611 [DTC]","OBJECT_ID":"2025-043G","EPOCH":"2025-10-15T08:09:37.319328","MEAN_MOTION":15.71083701,"ECCENTRICITY":0.00013326,"INCLINATION":43.0006,"RA_OF_ASC_NODE":46.7258,"ARG_OF_PERICENTER":241.2352,"MEAN_ANOMALY":118.8382,"EPHEMERIS_TYPE":0,"CLASSIFICATION_TYPE":"U","NORAD_CAT_ID":63138,"ELEMENT_SET_NO":999,"REV_AT_EPOCH":3661,"BSTAR":0.0019993984,"MEAN_MOTION_DOT":0.00267245,"MEAN_MOTION_DDOT":0},{"OBJECT_NAME":"STARLINK-11628 [DTC]","OBJECT_ID":"2025-043H","EPOCH":"2025-10-16T01:04:25.542048","MEAN_MOTION":15.70883798,"ECCENTRICITY":0.0002666,"INCLINATION":43.0023,"RA_OF_ASC_NODE":42.5507,"ARG_OF_PERICENTER":268.0192,"MEAN_ANOMALY":92.0371,"EPHEMERIS_TYPE":0,"CLASSIFICATION_TYPE":"U","NORAD_CAT_ID":63139,"ELEMENT_SET_NO":999,"REV_AT_EPOCH":3672,"BSTAR":0.0019571,"MEAN_MOTION_DOT":0.0025915,"MEAN_MOTION_DDOT":0},{"OBJECT_NAME":"STARLINK-11607 [DTC]","OBJECT_ID":"2025-043J","EPOCH":"2025-10-15T09:25:54.007680","MEAN_MOTION":15.70893959,"ECCENTRICITY":0.00027852,"INCLINATION":42.9991,"RA_OF_ASC_NODE":46.2552,"ARG_OF_PERICENTER":290.6619,"MEAN_ANOMALY":69.395,"EPHEMERIS_TYPE":0,"CLASSIFICATION_TYPE":"U","NORAD_CAT_ID":63140,"ELEMENT_SET_NO":999,"REV_AT_EPOCH":3662,"BSTAR":0.0023543583,"MEAN_MOTION_DOT":0.00314065,"MEAN_MOTION_DDOT":0},{"OBJECT_NAME":"STARLINK-11522 [DTC]","OBJECT_ID":"2025-043K","EPOCH":"2025-10-15T17:11:20.688288","MEAN_MOTION":15.71103531,"ECCENTRICITY":0.00021775,"INCLINATION":43.0003,"RA_OF_ASC_NODE":44.3804,"ARG_OF_PERICENTER":287.3142,"MEAN_ANOMALY":72.7487,"EPHEMERIS_TYPE":0,"CLASSIFICATION_TYPE":"U","NORAD_CAT_ID":63141,"ELEMENT_SET_NO":999,"REV_AT_EPOCH":3649,"BSTAR":0.0021581884,"MEAN_MOTION_DOT":0.00289532,"MEAN_MOTION_DDOT":0},{"OBJECT_NAME":"STARLINK-11503 [DTC]","OBJECT_ID":"2025-043L","EPOCH":"2025-10-16T04:00:03.000096","MEAN_MOTION":15.70757218,"ECCENTRICITY":7.88e-5,"INCLINATION":43,"RA_OF_ASC_NODE":41.4396,"ARG_OF_PERICENTER":263.4943,"MEAN_ANOMALY":217.5383,"EPHEMERIS_TYPE":0,"CLASSIFICATION_TYPE":"U","NORAD_CAT_ID":63142,"ELEMENT_SET_NO":999,"REV_AT_EPOCH":593,"BSTAR":0.00055486,"MEAN_MOTION_DOT":0.00071109,"MEAN_MOTION_DDOT":0},{"OBJECT_NAME":"STARLINK-11579 [DTC]","OBJECT_ID":"2025-043M","EPOCH":"2025-10-15T15:24:29.111040","MEAN_MOTION":15.70913099,"ECCENTRICITY":0.0003862,"INCLINATION":43.003,"RA_OF_ASC_NODE":44.6781,"ARG_OF_PERICENTER":284.664,"MEAN_ANOMALY":75.3799,"EPHEMERIS_TYPE":0,"CLASSIFICATION_TYPE":"U","NORAD_CAT_ID":63143,"ELEMENT_SET_NO":999,"REV_AT_EPOCH":3654,"BSTAR":0.00048839,"MEAN_MOTION_DOT":0.00062907,"MEAN_MOTION_DDOT":0},{"OBJECT_NAME":"STARLINK-11581 [DTC]","OBJECT_ID":"2025-043N","EPOCH":"2025-10-15T14:31:09.586848","MEAN_MOTION":15.71083066,"ECCENTRICITY":0.0001435,"INCLINATION":42.997,"RA_OF_ASC_NODE":45.2714,"ARG_OF_PERICENTER":220.7668,"MEAN_ANOMALY":139.3093,"EPHEMERIS_TYPE":0,"CLASSIFICATION_TYPE":"U","NORAD_CAT_ID":63144,"ELEMENT_SET_NO":999,"REV_AT_EPOCH":3665,"BSTAR":0.0021507,"MEAN_MOTION_DOT":0.00288227,"MEAN_MOTION_DDOT":0},{"OBJECT_NAME":"STARLINK-32949","OBJECT_ID":"2025-043P","EPOCH":"2025-10-15T21:18:58.622400","MEAN_MOTION":15.27664495,"ECCENTRICITY":0.0002414,"INCLINATION":43.0017,"RA_OF_ASC_NODE":114.2636,"ARG_OF_PERICENTER":247.4826,"MEAN_ANOMALY":112.5771,"EPHEMERIS_TYPE":0,"CLASSIFICATION_TYPE":"U","NORAD_CAT_ID":63145,"ELEMENT_SET_NO":999,"REV_AT_EPOCH":3578,"BSTAR":-0.00093423,"MEAN_MOTION_DOT":-0.00025949,"MEAN_MOTION_DDOT":0},{"OBJECT_NAME":"STARLINK-32952","OBJECT_ID":"2025-043Q","EPOCH":"2025-10-15T22:11:04.526880","MEAN_MOTION":15.27598966,"ECCENTRICITY":0.0001983,"INCLINATION":43.0028,"RA_OF_ASC_NODE":120.5902,"ARG_OF_PERICENTER":271.1417,"MEAN_ANOMALY":88.9207,"EPHEMERIS_TYPE":0,"CLASSIFICATION_TYPE":"U","NORAD_CAT_ID":63146,"ELEMENT_SET_NO":999,"REV_AT_EPOCH":3577,"BSTAR":0.0010943,"MEAN_MOTION_DOT":0.00029992,"MEAN_MOTION_DDOT":0}]
